[{"OBJECT_NAME":"SL-14 R/B","OBJECT_ID":"1986-006B","EPOCH":"2026-04-10T11:41:43.463040","MEAN_MOTION":14.86874614,"ECCENTRICITY":0.0076847,"INCLINATION":82.5273,"RA_OF_ASC_NODE":229.807,"ARG_OF_PERICENTER":166.2337,"MEAN_ANOMALY":194.1001,"EPHEMERIS_TYPE":0,"CLASSIFICATION_TYPE":"U","NORAD_CAT_ID":16496,"ELEMENT_SET_NO":999,"REV_AT_EPOCH":15393,"BSTAR":9.6089e-5,"MEAN_MOTION_DOT":9.32e-6,"MEAN_MOTION_DDOT":0},{"OBJECT_NAME":"COSMOS 1743","OBJECT_ID":"1986-034A","EPOCH":"2026-04-10T07:57:13.990752","MEAN_MOTION":15.61515099,"ECCENTRICITY":0.0006489,"INCLINATION":82.5307,"RA_OF_ASC_NODE":40.5538,"ARG_OF_PERICENTER":140.1328,"MEAN_ANOMALY":220.0408,"EPHEMERIS_TYPE":0,"CLASSIFICATION_TYPE":"U","NORAD_CAT_ID":16719,"ELEMENT_SET_NO":999,"REV_AT_EPOCH":18518,"BSTAR":0.00055317,"MEAN_MOTION_DOT":0.00047596,"MEAN_MOTION_DDOT":0},{"OBJECT_NAME":"SL-14 R/B","OBJECT_ID":"1986-046B","EPOCH":"2026-04-10T07:54:00.141120","MEAN_MOTION":14.85624739,"ECCENTRICITY":0.0024425,"INCLINATION":82.4825,"RA_OF_ASC_NODE":50.2825,"ARG_OF_PERICENTER":121.4196,"MEAN_ANOMALY":238.9413,"EPHEMERIS_TYPE":0,"CLASSIFICATION_TYPE":"U","NORAD_CAT_ID":16792,"ELEMENT_SET_NO":999,"REV_AT_EPOCH":13110,"BSTAR":5.7782e-5,"MEAN_MOTION_DOT":5.27e-6,"MEAN_MOTION_DDOT":0},{"OBJECT_NAME":"SL-14 R/B","OBJECT_ID":"1986-055B","EPOCH":"2026-04-10T11:25:32.111040","MEAN_MOTION":14.85673681,"ECCENTRICITY":0.0017753,"INCLINATION":82.5168,"RA_OF_ASC_NODE":96.7868,"ARG_OF_PERICENTER":223.5119,"MEAN_ANOMALY":292.7406,"EPHEMERIS_TYPE":0,"CLASSIFICATION_TYPE":"U","NORAD_CAT_ID":16882,"ELEMENT_SET_NO":999,"REV_AT_EPOCH":12408,"BSTAR":5.0777e-5,"MEAN_MOTION_DOT":4.65e-6,"MEAN_MOTION_DDOT":0},{"OBJECT_NAME":"AJISAI (EGS)","OBJECT_ID":"1986-061A","EPOCH":"2026-04-10T12:20:33.906048","MEAN_MOTION":12.44515705,"ECCENTRICITY":0.0011387,"INCLINATION":50.0121,"RA_OF_ASC_NODE":355.489,"ARG_OF_PERICENTER":8.894,"MEAN_ANOMALY":48.0688,"EPHEMERIS_TYPE":0,"CLASSIFICATION_TYPE":"U","NORAD_CAT_ID":16908,"ELEMENT_SET_NO":999,"REV_AT_EPOCH":47196,"BSTAR":4.1553e-5,"MEAN_MOTION_DOT":-9.2e-7,"MEAN_MOTION_DDOT":0},{"OBJECT_NAME":"SL-14 R/B","OBJECT_ID":"1987-024B","EPOCH":"2026-04-10T08:25:30.698400","MEAN_MOTION":14.86165775,"ECCENTRICITY":0.0018928,"INCLINATION":82.5273,"RA_OF_ASC_NODE":62.9987,"ARG_OF_PERICENTER":151.5365,"MEAN_ANOMALY":208.689,"EPHEMERIS_TYPE":0,"CLASSIFICATION_TYPE":"U","NORAD_CAT_ID":17567,"ELEMENT_SET_NO":999,"REV_AT_EPOCH":9283,"BSTAR":5.5579e-5,"MEAN_MOTION_DOT":5.14e-6,"MEAN_MOTION_DDOT":0},{"OBJECT_NAME":"COSMOS 1833","OBJECT_ID":"1987-027A","EPOCH":"2026-04-10T10:22:56.201088","MEAN_MOTION":14.13041053,"ECCENTRICITY":0.0022726,"INCLINATION":70.9163,"RA_OF_ASC_NODE":259.2951,"ARG_OF_PERICENTER":166.5382,"MEAN_ANOMALY":193.635,"EPHEMERIS_TYPE":0,"CLASSIFICATION_TYPE":"U","NORAD_CAT_ID":17589,"ELEMENT_SET_NO":999,"REV_AT_EPOCH":1480,"BSTAR":-0.00013312,"MEAN_MOTION_DOT":-2.97e-6,"MEAN_MOTION_DDOT":0},{"OBJECT_NAME":"SL-16 R/B","OBJECT_ID":"1987-027B","EPOCH":"2026-04-10T12:37:13.687104","MEAN_MOTION":14.17170423,"ECCENTRICITY":0.0002924,"INCLINATION":71.0037,"RA_OF_ASC_NODE":209.4052,"ARG_OF_PERICENTER":59.7455,"MEAN_ANOMALY":300.3958,"EPHEMERIS_TYPE":0,"CLASSIFICATION_TYPE":"U","NORAD_CAT_ID":17590,"ELEMENT_SET_NO":999,"REV_AT_EPOCH":1985,"BSTAR":-2.1415e-5,"MEAN_MOTION_DOT":-9.1e-7,"MEAN_MOTION_DDOT":0},{"OBJECT_NAME":"SL-14 R/B","OBJECT_ID":"1987-038B","EPOCH":"2026-04-10T10:18:38.201184","MEAN_MOTION":14.85401546,"ECCENTRICITY":0.0020563,"INCLINATION":82.4984,"RA_OF_ASC_NODE":266.8971,"ARG_OF_PERICENTER":61.9729,"MEAN_ANOMALY":298.3564,"EPHEMERIS_TYPE":0,"CLASSIFICATION_TYPE":"U","NORAD_CAT_ID":17912,"ELEMENT_SET_NO":999,"REV_AT_EPOCH":8394,"BSTAR":5.3121e-5,"MEAN_MOTION_DOT":4.83e-6,"MEAN_MOTION_DDOT":0},{"OBJECT_NAME":"COSMOS 1844","OBJECT_ID":"1987-041A","EPOCH":"2026-04-10T08:42:54.241056","MEAN_MOTION":14.14564913,"ECCENTRICITY":0.0032007,"INCLINATION":70.9011,"RA_OF_ASC_NODE":327.3709,"ARG_OF_PERICENTER":331.2165,"MEAN_ANOMALY":28.719,"EPHEMERIS_TYPE":0,"CLASSIFICATION_TYPE":"U","NORAD_CAT_ID":17973,"ELEMENT_SET_NO":999,"REV_AT_EPOCH":806,"BSTAR":5.9512e-5,"MEAN_MOTION_DOT":6.6e-7,"MEAN_MOTION_DDOT":0},{"OBJECT_NAME":"SL-14 R/B","OBJECT_ID":"1987-055B","EPOCH":"2026-04-10T08:00:16.521120","MEAN_MOTION":14.85660947,"ECCENTRICITY":0.00191,"INCLINATION":82.4985,"RA_OF_ASC_NODE":319.2082,"ARG_OF_PERICENTER":269.0634,"MEAN_ANOMALY":90.8394,"EPHEMERIS_TYPE":0,"CLASSIFICATION_TYPE":"U","NORAD_CAT_ID":18153,"ELEMENT_SET_NO":999,"REV_AT_EPOCH":7463,"BSTAR":4.1403e-5,"MEAN_MOTION_DOT":3.84e-6,"MEAN_MOTION_DDOT":0},{"OBJECT_NAME":"COSMOS 1867","OBJECT_ID":"1987-060A","EPOCH":"2026-04-10T10:30:26.250912","MEAN_MOTION":14.3150831,"ECCENTRICITY":0.0015073,"INCLINATION":65.0109,"RA_OF_ASC_NODE":217.7912,"ARG_OF_PERICENTER":280.3854,"MEAN_ANOMALY":79.5531,"EPHEMERIS_TYPE":0,"CLASSIFICATION_TYPE":"U","NORAD_CAT_ID":18187,"ELEMENT_SET_NO":999,"REV_AT_EPOCH":2448,"BSTAR":2.1994e-5,"MEAN_MOTION_DOT":-4.2e-7,"MEAN_MOTION_DDOT":0},{"OBJECT_NAME":"SL-14 R/B","OBJECT_ID":"1988-001B","EPOCH":"2026-04-10T11:10:44.567040","MEAN_MOTION":14.85562952,"ECCENTRICITY":0.0019287,"INCLINATION":82.5149,"RA_OF_ASC_NODE":165.4828,"ARG_OF_PERICENTER":130.3808,"MEAN_ANOMALY":229.9096,"EPHEMERIS_TYPE":0,"CLASSIFICATION_TYPE":"U","NORAD_CAT_ID":18749,"ELEMENT_SET_NO":999,"REV_AT_EPOCH":4674,"BSTAR":4.2884e-5,"MEAN_MOTION_DOT":3.96e-6,"MEAN_MOTION_DDOT":0},{"OBJECT_NAME":"COSMOS 1933","OBJECT_ID":"1988-020A","EPOCH":"2026-04-10T08:41:16.977984","MEAN_MOTION":15.18305572,"ECCENTRICITY":0.0005495,"INCLINATION":82.5139,"RA_OF_ASC_NODE":219.5691,"ARG_OF_PERICENTER":91.6855,"MEAN_ANOMALY":268.5008,"EPHEMERIS_TYPE":0,"CLASSIFICATION_TYPE":"U","NORAD_CAT_ID":18958,"ELEMENT_SET_NO":999,"REV_AT_EPOCH":5503,"BSTAR":0.00019374,"MEAN_MOTION_DOT":4.004e-5,"MEAN_MOTION_DDOT":0},{"OBJECT_NAME":"SL-3 R/B","OBJECT_ID":"1988-032B","EPOCH":"2026-04-10T12:39:21.053664","MEAN_MOTION":15.2027804,"ECCENTRICITY":0.0027448,"INCLINATION":97.5228,"RA_OF_ASC_NODE":83.683,"ARG_OF_PERICENTER":121.0075,"MEAN_ANOMALY":239.3861,"EPHEMERIS_TYPE":0,"CLASSIFICATION_TYPE":"U","NORAD_CAT_ID":19046,"ELEMENT_SET_NO":999,"REV_AT_EPOCH":5694,"BSTAR":0.00020812,"MEAN_MOTION_DOT":4.492e-5,"MEAN_MOTION_DDOT":0},{"OBJECT_NAME":"SL-16 R/B","OBJECT_ID":"1988-039B","EPOCH":"2026-04-10T11:26:58.312320","MEAN_MOTION":14.19621546,"ECCENTRICITY":0.0023956,"INCLINATION":71.0174,"RA_OF_ASC_NODE":1.3345,"ARG_OF_PERICENTER":289.1773,"MEAN_ANOMALY":70.676,"EPHEMERIS_TYPE":0,"CLASSIFICATION_TYPE":"U","NORAD_CAT_ID":19120,"ELEMENT_SET_NO":999,"REV_AT_EPOCH":96289,"BSTAR":9.4895e-5,"MEAN_MOTION_DOT":1.53e-6,"MEAN_MOTION_DDOT":0},{"OBJECT_NAME":"COSMOS 1953","OBJECT_ID":"1988-050A","EPOCH":"2026-04-10T10:28:00.147648","MEAN_MOTION":15.29042823,"ECCENTRICITY":0.001125,"INCLINATION":82.5061,"RA_OF_ASC_NODE":126.3025,"ARG_OF_PERICENTER":22.5291,"MEAN_ANOMALY":337.6441,"EPHEMERIS_TYPE":0,"CLASSIFICATION_TYPE":"U","NORAD_CAT_ID":19210,"ELEMENT_SET_NO":999,"REV_AT_EPOCH":4263,"BSTAR":0.00026388,"MEAN_MOTION_DOT":7.485e-5,"MEAN_MOTION_DDOT":0}]
