SL-14 R/B               
1 16496U 86006B   26100.48730860  .00000932  00000+0  96089-4 0  9990
2 16496  82.5273 229.8070 0076847 166.2337 194.1001 14.86874614153939
COSMOS 1743             
1 16719U 86034A   26100.33141193  .00047596  00000+0  55317-3 0  9993
2 16719  82.5307  40.5538 0006489 140.1328 220.0408 15.61515099185183
SL-14 R/B               
1 16792U 86046B   26100.32916830  .00000527  00000+0  57782-4 0  9996
2 16792  82.4825  50.2825 0024425 121.4196 238.9413 14.85624739131104
SL-14 R/B               
1 16882U 86055B   26100.47606610  .00000465  00000+0  50777-4 0  9992
2 16882  82.5168  96.7868 0017753 223.5119 292.7406 14.85673681124081
AJISAI (EGS)            
1 16908U 86061A   26100.51428132 -.00000092  00000+0  41553-4 0  9993
2 16908  50.0121 355.4890 0011387   8.8940  48.0688 12.44515705471963
SL-14 R/B               
1 17567U 87024B   26100.35104975  .00000514  00000+0  55579-4 0  9994
2 17567  82.5273  62.9987 0018928 151.5365 208.6890 14.86165775 92835
COSMOS 1833             
1 17589U 87027A   26100.43259492 -.00000297  00000+0 -13312-3 0  9993
2 17589  70.9163 259.2951 0022726 166.5382 193.6350 14.13041053 14803
SL-16 R/B               
1 17590U 87027B   26100.52585286 -.00000091  00000+0 -21415-4 0  9994
2 17590  71.0037 209.4052 0002924  59.7455 300.3958 14.17170423 19857
SL-14 R/B               
1 17912U 87038B   26100.42960881  .00000483  00000+0  53121-4 0  9993
2 17912  82.4984 266.8971 0020563  61.9729 298.3564 14.85401546 83945
COSMOS 1844             
1 17973U 87041A   26100.36312779  .00000066  00000+0  59512-4 0  9991
2 17973  70.9011 327.3709 0032007 331.2165  28.7190 14.14564913  8060
SL-14 R/B               
1 18153U 87055B   26100.33352455  .00000384  00000+0  41403-4 0  9992
2 18153  82.4985 319.2082 0019100 269.0634  90.8394 14.85660947 74635
COSMOS 1867             
1 18187U 87060A   26100.43780383 -.00000042  00000+0  21994-4 0  9996
2 18187  65.0109 217.7912 0015073 280.3854  79.5531 14.31508310 24487
SL-14 R/B               
1 18749U 88001B   26100.46579360  .00000396  00000+0  42884-4 0  9992
2 18749  82.5149 165.4828 0019287 130.3808 229.9096 14.85562952 46749
COSMOS 1933             
1 18958U 88020A   26100.36200206  .00004004  00000+0  19374-3 0  9991
2 18958  82.5139 219.5691 0005495  91.6855 268.5008 15.18305572 55030
SL-3 R/B                
1 19046U 88032B   26100.52732701  .00004492  00000+0  20812-3 0  9991
2 19046  97.5228  83.6830 0027448 121.0075 239.3861 15.20278040 56949
SL-16 R/B               
1 19120U 88039B   26100.47706380  .00000153  00000+0  94895-4 0  9992
2 19120  71.0174   1.3345 0023956 289.1773  70.6760 14.19621546962892
COSMOS 1953             
1 19210U 88050A   26100.43611282  .00007485  00000+0  26388-3 0  9993
2 19210  82.5061 126.3025 0011250  22.5291 337.6441 15.29042823 42635
